ARABSAT-7B (BADR-8)     
1 56757U 23075A   26160.20442778  .00000162  00000+0  00000+0 0  9993
2 56757   0.0760  28.2038 0004751 356.4437 332.5435  1.00274137 11032
NVS-01 (IRNSS-1J)       
1 56759U 23076A   26160.29621498 -.00000318  00000+0  00000+0 0  9997
2 56759   2.1858 244.7175 0003016  39.7195 209.4555  1.00269087 11030
NUSANTARA TIGA (SATRIA) 
1 57045U 23086A   26160.22819295 -.00000218  00000+0  00000+0 0  9993
2 57045   0.0369 344.3896 0003543   2.2400 139.1304  1.00269274  9686
H2SAT (HEINRICH HERTZ)  
1 57213U 23093A   26160.26225318  .00000019  00000+0  00000+0 0  9997
2 57213   0.0534 112.5444 0001575  24.6688 215.5286  1.00272252 10837
SYRACUSE 4B             
1 57214U 23093B   26160.16850194  .00000000  00000+0  00000+0 0  9993
2 57214   0.0189 344.6046 0000223 235.0158  92.1727  1.00270453  6889
JUPITER 3 (ECHOSTAR 24) 
1 57479U 23108A   26159.55083615  .00000000  00000+0  00000+0 0  9990
2 57479   0.0204 336.8423 0001259 100.9544 282.2174  1.00270887 10559
GALAXY 37 (G-37)        
1 57493U 23112A   26160.24541769  .00000065  00000+0  00000+0 0  9999
2 57493   0.0184 352.1249 0001913  87.6694 139.1860  1.00271774 10461
LUDI TANCE-4 01A        
1 57624U 23120A   26158.65179637 -.00000162  00000+0  00000+0 0  9996
2 57624  15.1081 194.2074 0000825  74.7479 311.4666  1.00271349 10456
TJS-10                  
1 58204U 23169A   26159.78001833 -.00000232  00000+0  00000+0 0  9999
2 58204   2.5218  80.5904 0003988  99.7137  90.0580  1.00267539  9452
ZHONGXING-6E            
1 58253U 23172A   26160.29344163 -.00000344  00000+0  00000+0 0  9995
2 58253   0.0161  16.6097 0002429  64.9213  37.3071  1.00269026  9583
YAOGAN-41               
1 58582U 23197A   26160.29491497 -.00000347  00000+0  00000+0 0  9993
2 58582   3.1439 313.0037 0014097 193.0380 340.9795  1.00274866  9248
OVZON-3                 
1 58698U 24003A   26160.21110113  .00000069  00000+0  00000+0 0  9993
2 58698   0.0056 284.8156 0000141  23.3833  85.0860  1.00268715  7364
INSAT-3DS               
1 58990U 24033A   26160.07293723 -.00000140  00000+0  00000+0 0  9995
2 58990   0.0151 152.7656 0001229 281.1643 291.8663  1.00272939 46986
MERAH PUTIH 2           
1 58995U 24035A   26160.29292163  .00000000  00000+0  00000+0 0  9997
2 58995   0.0175 334.8302 0001046 104.6155  36.6301  1.00267835  8512
TJS-11                  
1 59020U 24037A   26158.62838740 -.00000345  00000+0  00000+0 0  9993
2 59020   4.2123 326.9451 0005501 181.0800  86.5687  1.00174849  8483
HULIANWAN GAOGUI-01 (H*)
1 59069U 24040A   26160.20590111  .00000173  00000+0  00000+0 0  9992
2 59069   0.0673 328.9799 0003170  71.4690 324.8874  1.00271589  7244
EUTELSAT 36D            
1 59346U 24059A   26160.27768281  .00000172  00000+0  00000+0 0  9991
2 59346   0.0180  13.4449 0000343 162.2272 217.8322  1.00270809  8061
PAKSAT-MM1              
1 59915U 24104A   26160.27811615  .00000170  00000+0  00000+0 0  9992
2 59915   0.0311  97.9512 0002008 330.0741 327.9276  1.00272481  7443
ASTRA 1P (SES-24)       
1 60086U 24115A   26160.13181762  .00000136  00000+0  00000+0 0  9995
2 60086   0.0552   6.4467 0000869 317.3959   0.3293  1.00270234  7116
GOES 19                 
1 60133U 24119A   26160.18439957 -.00000232  00000+0  00000+0 0  9997
2 60133   0.0379 164.0820 0000457 345.7919  98.8894  1.00271953  6885
ZHONGXING-3A            
1 60179U 24122A   26157.84886203 -.00000300  00000+0  00000+0 0  9996
2 60179   0.0425 119.1641 0001410 341.0815 202.1910  1.00273610  7201
TURKSAT 6A              
1 60233U 24127A   26160.20754779  .00000000  00000+0  00000+0 0  9994
2 60233   0.0143 169.1046 0001624 327.1189 238.0773  1.00271988  6939
HULIANWAN GAOGUI-02 (H*)
1 60327U 24135A   26160.22957962 -.00000156  00000+0  00000+0 0  9991
2 60327   0.0427 353.5574 0007528  13.9540 125.9290  1.00268711  7426
ZHONGXING-4A            
1 60606U 24151A   26160.29396163 -.00000345  00000+0  00000+0 0  9996
2 60606   1.3358 270.9318 0000489 211.7522 359.0358  1.00269439  6677
HULIANWAN GAOGUI-03 (H*)
1 61503U 24181A   26159.54233032 -.00000225  00000+0  00000+0 0  9994
2 61503   0.0452 355.5883 0001293 106.2275 273.1815  1.00266015  6737
DSN-3 (KIRAMEKI-3)      
1 61733U 24198A   26160.29907499 -.00000233  00000+0  00000+0 0  9995
2 61733   0.0157 291.1295 0000895 225.9715 352.3125  1.00270208  5845
KOREASAT 6A             
1 61910U 24206A   26160.07614222 -.00000345  00000+0  00000+0 0  9991
2 61910   0.0410 134.5680 0000909 283.0920 343.2187  1.00272075  5752
OPTUS-X (ADS-01)        
1 62006U 24212A   26160.28688524 -.00000127  00000+0  00000+0 0  9992
2 62006   0.0195 328.0339 0001702 150.1887  39.1305  1.00270913  5682
GSAT-N2 (GSAT-20)       
1 62028U 24214A   26160.20302545 -.00000003  00000+0  00000+0 0  9999
2 62028   0.0155 154.8435 0002021 277.1750 326.6696  1.00269091  5815
SXM-9                   
1 62259U 24234A   26159.89724795 -.00000189  00000+0  00000+0 0  9990
2 62259   0.0166 319.2053 0004904 356.9356 179.0016  1.00271326  5490
TJS-12                  
1 62374U 24246A   26159.87184091 -.00000214  00000+0  00000+0 0  9997
2 62374   0.6896 298.3112 0002190  86.5276 332.8432  1.00272268  5485
